{"type": "FeatureCollection", "features": [ {"type": "Feature", "properties": {"norad_id": 43437, "name": "SENTINEL-3B", "group": "resource", "lat": -48.426031466038786, "lon": 71.14383531207424, "alt_km": 810.3672798556781, "timestamp": "2025-12-22T05:49:03.139972+00:00", "meta": {"OBJECT_NAME": "SENTINEL-3B", "OBJECT_ID": "2018-039A", "EPOCH": "2025-12-21T16:34:57.699840", "MEAN_MOTION": 14.26737274, "ECCENTRICITY": 0.0001625, "INCLINATION": 98.6255, "RA_OF_ASC_NODE": 60.7475, "ARG_OF_PERICENTER": 92.8755, "MEAN_ANOMALY": 267.2611, "EPHEMERIS_TYPE": 0, "CLASSIFICATION_TYPE": "U", "NORAD_CAT_ID": 43437, "ELEMENT_SET_NO": 999, "REV_AT_EPOCH": 39881, "BSTAR": 6.8652e-05, "MEAN_MOTION_DOT": 1.23e-06, "MEAN_MOTION_DDOT": 0}, "tle": {"line1": "1 43437U 18039A   25355.69094560  .00000123  00000+0  68652-4 0  9997", "line2": "2 43437  98.6255  60.7475 0001625  92.8755 267.2611 14.26737274398814"}}, "geometry": {"type": "Point", "coordinates": [71.14383531207424, -48.426031466038786]}}, {"type": "Feature", "properties": {"norad_id": 43461, "name": "GAOFEN-5 01", "group": "resource", "lat": 10.23585380278129, "lon": -42.15915635467585, "alt_km": 693.4037061339122, "timestamp": "2025-12-22T05:49:03.139982+00:00", "meta": {"OBJECT_NAME": "GAOFEN-5 01", "OBJECT_ID": "2018-043A", "EPOCH": "2025-12-21T19:54:15.433056", "MEAN_MOTION": 14.60418992, "ECCENTRICITY": 5.17e-05, "INCLINATION": 98.434, "RA_OF_ASC_NODE": 318.9558, "ARG_OF_PERICENTER": 276.6203, "MEAN_ANOMALY": 83.4937, "EPHEMERIS_TYPE": 0, "CLASSIFICATION_TYPE": "U", "NORAD_CAT_ID": 43461, "ELEMENT_SET_NO": 999, "REV_AT_EPOCH": 40580, "BSTAR": 8.7495e-05, "MEAN_MOTION_DOT": 3.75e-06, "MEAN_MOTION_DDOT": 0}, "tle": {"line1": "1 43461U 18043A   25355.82934529  .00000375  00000+0  87495-4 0  9997", "line2": "2 43461  98.4340 318.9558 0000517 276.6203  83.4937 14.60418992405801"}}, "geometry": {"type": "Point", "coordinates": [-42.15915635467585, 10.23585380278129]}}, {"type": "Feature", "properties": {"norad_id": 43484, "name": "GAOFEN-6", "group": "resource", "lat": -17.44882886259619, "lon": -122.28006129476769, "alt_km": 653.648427434613, "timestamp": "2025-12-22T05:49:03.139993+00:00", "meta": {"OBJECT_NAME": "GAOFEN-6", "OBJECT_ID": "2018-048A", "EPOCH": "2025-12-21T20:47:40.581024", "MEAN_MOTION": 14.76579212, "ECCENTRICITY": 0.0012768, "INCLINATION": 97.8025, "RA_OF_ASC_NODE": 59.8268, "ARG_OF_PERICENTER": 36.6855, "MEAN_ANOMALY": 323.5227, "EPHEMERIS_TYPE": 0, "CLASSIFICATION_TYPE": "U", "NORAD_CAT_ID": 43484, "ELEMENT_SET_NO": 999, "REV_AT_EPOCH": 40722, "BSTAR": 3.5362e-05, "MEAN_MOTION_DOT": 1.98e-06, "MEAN_MOTION_DDOT": 0}, "tle": {"line1": "1 43484U 18048A   25355.86644191  .00000198  00000+0  35362-4 0  9993", "line2": "2 43484  97.8025  59.8268 0012768  36.6855 323.5227 14.76579212407224"}}, "geometry": {"type": "Point", "coordinates": [-122.28006129476769, -17.44882886259619]}}, {"type": "Feature", "properties": {"norad_id": 43585, "name": "GAOFEN-11 01", "group": "resource", "lat": -30.340731798316614, "lon": 63.314900846647646, "alt_km": 423.25221881026846, "timestamp": "2025-12-22T05:49:03.140003+00:00", "meta": {"OBJECT_NAME": "GAOFEN-11 01", "OBJECT_ID": "2018-063A", "EPOCH": "2025-12-21T20:38:58.567776", "MEAN_MOTION": 15.49450164, "ECCENTRICITY": 0.0003889, "INCLINATION": 97.155, "RA_OF_ASC_NODE": 58.7194, "ARG_OF_PERICENTER": 266.8126, "MEAN_ANOMALY": 93.2681, "EPHEMERIS_TYPE": 0, "CLASSIFICATION_TYPE": "U", "NORAD_CAT_ID": 43585, "ELEMENT_SET_NO": 999, "REV_AT_EPOCH": 41283, "BSTAR": 0.0001414, "MEAN_MOTION_DOT": 7.682e-05, "MEAN_MOTION_DDOT": 0}, "tle": {"line1": "1 43585U 18063A   25355.86040009  .00007682  00000+0  14140-3 0  9995", "line2": "2 43585  97.1550  58.7194 0003889 266.8126  93.2681 15.49450164412833"}}, "geometry": {"type": "Point", "coordinates": [63.314900846647646, -30.340731798316614]}}, {"type": "Feature", "properties": {"norad_id": 43613, "name": "ICESAT-2", "group": "resource", "lat": 62.997253025758994, "lon": -120.6391489748911, "alt_km": 473.81972523447985, "timestamp": "2025-12-22T05:49:03.140014+00:00", "meta": {"OBJECT_NAME": "ICESAT-2", "OBJECT_ID": "2018-070A", "EPOCH": "2025-12-21T18:32:31.267104", "MEAN_MOTION": 15.28257748, "ECCENTRICITY": 0.0002981, "INCLINATION": 92.0044, "RA_OF_ASC_NODE": 243.175, "ARG_OF_PERICENTER": 120.3502, "MEAN_ANOMALY": 239.8042, "EPHEMERIS_TYPE": 0, "CLASSIFICATION_TYPE": "U", "NORAD_CAT_ID": 43613, "ELEMENT_SET_NO": 999, "REV_AT_EPOCH": 40536, "BSTAR": 0.00039019, "MEAN_MOTION_DOT": 0.00010741, "MEAN_MOTION_DDOT": 0}, "tle": {"line1": "1 43613U 18070A   25355.77258411  .00010741  00000+0  39019-3 0  9995", "line2": "2 43613  92.0044 243.1750 0002981 120.3502 239.8042 15.28257748405368"}}, "geometry": {"type": "Point", "coordinates": [-120.6391489748911, 62.997253025758994]}}, {"type": "Feature", "properties": {"norad_id": 43719, "name": "HYSIS", "group": "resource", "lat": -55.1533175677682, "lon": 70.84105734254874, "alt_km": 640.7823040735339, "timestamp": "2025-12-22T05:49:03.140024+00:00", "meta": {"OBJECT_NAME": "HYSIS", "OBJECT_ID": "2018-096A", "EPOCH": "2025-12-21T20:19:33.018816", "MEAN_MOTION": 14.78665619, "ECCENTRICITY": 9.97e-05, "INCLINATION": 98.0091, "RA_OF_ASC_NODE": 58.7802, "ARG_OF_PERICENTER": 51.7434, "MEAN_ANOMALY": 308.3867, "EPHEMERIS_TYPE": 0, "CLASSIFICATION_TYPE": "U", "NORAD_CAT_ID": 43719, "ELEMENT_SET_NO": 999, "REV_AT_EPOCH": 38121, "BSTAR": 4.9892e-05, "MEAN_MOTION_DOT": 3.14e-06, "MEAN_MOTION_DDOT": 0}, "tle": {"line1": "1 43719U 18096A   25355.84690994  .00000314  00000+0  49892-4 0  9990", "line2": "2 43719  98.0091  58.7802 0000997  51.7434 308.3867 14.78665619381215"}}, "geometry": {"type": "Point", "coordinates": [70.84105734254874, -55.1533175677682]}}, {"type": "Feature", "properties": {"norad_id": 43783, "name": "KAZSTSAT", "group": "resource", "lat": 12.73827444512788, "lon": -147.286126725973, "alt_km": 572.3113769928977, "timestamp": "2025-12-22T05:49:03.140035+00:00", "meta": {"OBJECT_NAME": "KAZSTSAT", "OBJECT_ID": "2018-099AB", "EPOCH": "2025-12-21T01:50:44.888352", "MEAN_MOTION": 14.99364891, "ECCENTRICITY": 0.00060238, "INCLINATION": 97.4527, "RA_OF_ASC_NODE": 29.903, "ARG_OF_PERICENTER": 292.687, "MEAN_ANOMALY": 67.3717, "EPHEMERIS_TYPE": 0, "CLASSIFICATION_TYPE": "U", "NORAD_CAT_ID": 43783, "ELEMENT_SET_NO": 999, "REV_AT_EPOCH": 38461, "BSTAR": 1.8043656e-05, "MEAN_MOTION_DOT": 1.65e-06, "MEAN_MOTION_DDOT": 0}, "tle": {"line1": "1 43783U 18099AB  25355.07690843  .00000165  00000+0  18044-4 0  9991", "line2": "2 43783  97.4527  29.9030 0006023 292.6870  67.3717 14.99364891384616"}}, "geometry": {"type": "Point", "coordinates": [-147.286126725973, 12.73827444512788]}}, {"type": "Feature", "properties": {"norad_id": 43831, "name": "SAUDISAT 5A", "group": "resource", "lat": 39.398275005462075, "lon": 50.17771323394736, "alt_km": 477.84276922519894, "timestamp": "2025-12-22T05:49:03.140045+00:00", "meta": {"OBJECT_NAME": "SAUDISAT 5A", "OBJECT_ID": "2018-102A", "EPOCH": "2025-12-21T20:12:00.356256", "MEAN_MOTION": 15.25759397, "ECCENTRICITY": 0.0011309, "INCLINATION": 97.3339, "RA_OF_ASC_NODE": 55.8572, "ARG_OF_PERICENTER": 48.0879, "MEAN_ANOMALY": 312.1321, "EPHEMERIS_TYPE": 0, "CLASSIFICATION_TYPE": "U", "NORAD_CAT_ID": 43831, "ELEMENT_SET_NO": 999, "REV_AT_EPOCH": 38861, "BSTAR": 0.00020675, "MEAN_MOTION_DOT": 5.215e-05, "MEAN_MOTION_DDOT": 0}, "tle": {"line1": "1 43831U 18102A   25355.84167079  .00005215  00000+0  20675-3 0  9998", "line2": "2 43831  97.3339  55.8572 0011309  48.0879 312.1321 15.25759397388619"}}, "geometry": {"type": "Point", "coordinates": [50.17771323394736, 39.398275005462075]}}, {"type": "Feature", "properties": {"norad_id": 43833, "name": "SAUDISAT 5B", "group": "resource", "lat": 74.00911997426653, "lon": -94.24888729011528, "alt_km": 475.7064449736308, "timestamp": "2025-12-22T05:49:03.140056+00:00", "meta": {"OBJECT_NAME": "SAUDISAT 5B", "OBJECT_ID": "2018-102C", "EPOCH": "2025-12-21T19:55:17.995296", "MEAN_MOTION": 15.26107565, "ECCENTRICITY": 0.0012051, "INCLINATION": 97.3435, "RA_OF_ASC_NODE": 58.6007, "ARG_OF_PERICENTER": 50.1544, "MEAN_ANOMALY": 310.0753, "EPHEMERIS_TYPE": 0, "CLASSIFICATION_TYPE": "U", "NORAD_CAT_ID": 43833, "ELEMENT_SET_NO": 999, "REV_AT_EPOCH": 38872, "BSTAR": 0.00019149, "MEAN_MOTION_DOT": 4.876e-05, "MEAN_MOTION_DDOT": 0}, "tle": {"line1": "1 43833U 18102C   25355.83006939  .00004876  00000+0  19149-3 0  9992", "line2": "2 43833  97.3435  58.6007 0012051  50.1544 310.0753 15.26107565388723"}}, "geometry": {"type": "Point", "coordinates": [-94.24888729011528, 74.00911997426653]}}, {"type": "Feature", "properties": {"norad_id": 44622, "name": "GAOFEN-10R", "group": "resource", "lat": 10.0563163888087, "lon": -57.64817758295298, "alt_km": 616.9824728716112, "timestamp": "2025-12-22T05:49:03.140066+00:00", "meta": {"OBJECT_NAME": "GAOFEN-10R", "OBJECT_ID": "2019-066A", "EPOCH": "2025-12-21T20:03:17.298432", "MEAN_MOTION": 14.82820301, "ECCENTRICITY": 0.0007257, "INCLINATION": 98.0291, "RA_OF_ASC_NODE": 303.3778, "ARG_OF_PERICENTER": 15.2959, "MEAN_ANOMALY": 344.8472, "EPHEMERIS_TYPE": 0, "CLASSIFICATION_TYPE": "U", "NORAD_CAT_ID": 44622, "ELEMENT_SET_NO": 999, "REV_AT_EPOCH": 33609, "BSTAR": 0.00016148, "MEAN_MOTION_DOT": 1.252e-05, "MEAN_MOTION_DDOT": 0}, "tle": {"line1": "1 44622U 19066A   25355.83561688  .00001252  00000+0  16148-3 0  9997", "line2": "2 44622  98.0291 303.3778 0007257  15.2959 344.8472 14.82820301336094"}}, "geometry": {"type": "Point", "coordinates": [-57.64817758295298, 10.0563163888087]}}]}